[{"OBJECT_NAME":"STARLINK-32411","OBJECT_ID":"2024-184R","EPOCH":"2026-03-09T03:36:16.176672","MEAN_MOTION":15.30192458,"ECCENTRICITY":9.965e-5,"INCLINATION":53.1624,"RA_OF_ASC_NODE":16.5001,"ARG_OF_PERICENTER":82.5308,"MEAN_ANOMALY":277.5806,"EPHEMERIS_TYPE":0,"CLASSIFICATION_TYPE":"U","NORAD_CAT_ID":61547,"ELEMENT_SET_NO":999,"REV_AT_EPOCH":7842,"BSTAR":2.19918e-7,"MEAN_MOTION_DOT":-3.52e-6,"MEAN_MOTION_DDOT":0},{"OBJECT_NAME":"OBJECT H","OBJECT_ID":"2025-055H","EPOCH":"2026-03-09T23:29:50.051328","MEAN_MOTION":15.30330066,"ECCENTRICITY":0.00075967,"INCLINATION":97.636,"RA_OF_ASC_NODE":211.9572,"ARG_OF_PERICENTER":140.4354,"MEAN_ANOMALY":219.7441,"EPHEMERIS_TYPE":0,"CLASSIFICATION_TYPE":"U","NORAD_CAT_ID":63298,"ELEMENT_SET_NO":999,"REV_AT_EPOCH":5423,"BSTAR":0.0015582864,"MEAN_MOTION_DOT":0.00045901,"MEAN_MOTION_DDOT":0}]
